{
    "links": {
        "self": "http://www.neowsapp.com/rest/v1/neo/3703778?api_key=iIulBulltgU6a56xZRHN4H3l9WmuAYTsLGpBGhQ2"
    },
    "id": "3703778",
    "neo_reference_id": "3703778",
    "name": "(2015 AZ44)",
    "designation": "2015 AZ44",
    "nasa_jpl_url": "http://ssd.jpl.nasa.gov/sbdb.cgi?sstr=3703778",
    "absolute_magnitude_h": 21.2,
    "estimated_diameter": {
        "kilometers": {
            "estimated_diameter_min": 0.1529519353,
            "estimated_diameter_max": 0.3420109247
        },
        "meters": {
            "estimated_diameter_min": 152.9519353442,
            "estimated_diameter_max": 342.0109247198
        },
        "miles": {
            "estimated_diameter_min": 0.095039897,
            "estimated_diameter_max": 0.2125156703
        },
        "feet": {
            "estimated_diameter_min": 501.8108275547,
            "estimated_diameter_max": 1122.0831222578
        }
    },
    "is_potentially_hazardous_asteroid": false,
    "close_approach_data": [
        {
            "close_approach_date": "1933-07-25",
            "close_approach_date_full": "1933-Jul-25 17:09",
            "epoch_date_close_approach": -1149835860000,
            "relative_velocity": {
                "kilometers_per_second": "18.4894488518",
                "kilometers_per_hour": "66562.0158665088",
                "miles_per_hour": "41359.0481366093"
            },
            "miss_distance": {
                "astronomical": "0.4255229223",
                "lunar": "165.5284167747",
                "kilometers": "63657322.812255501",
                "miles": "39554826.2138718738"
            },
            "orbiting_body": "Earth"
        },
        {
            "close_approach_date": "2014-07-29",
            "close_approach_date_full": "2014-Jul-29 21:00",
            "epoch_date_close_approach": 1406667600000,
            "relative_velocity": {
                "kilometers_per_second": "16.6603679592",
                "kilometers_per_hour": "59977.324653138",
                "miles_per_hour": "37267.5770879457"
            },
            "miss_distance": {
                "astronomical": "0.3608959995",
                "lunar": "140.3885438055",
                "kilometers": "53989272.816721065",
                "miles": "33547378.515698097"
            },
            "orbiting_body": "Earth"
        },
        {
            "close_approach_date": "2014-12-29",
            "close_approach_date_full": "2014-Dec-29 23:23",
            "epoch_date_close_approach": 1419895380000,
            "relative_velocity": {
                "kilometers_per_second": "7.3882726757",
                "kilometers_per_hour": "26597.7816324385",
                "miles_per_hour": "16526.8271482227"
            },
            "miss_distance": {
                "astronomical": "0.4745568379",
                "lunar": "184.6026099431",
                "kilometers": "70992692.143775273",
                "miles": "44112813.3598058474"
            },
            "orbiting_body": "Earth"
        }
    ],
    "orbital_data": {
        "orbit_id": "5",
        "orbit_determination_date": "2017-04-06 08:36:25",
        "first_observation_date": "2015-01-14",
        "last_observation_date": "2015-01-24",
        "data_arc_in_days": 10,
        "observations_used": 19,
        "orbit_uncertainty": "9",
        "minimum_orbit_intersection": ".0910995",
        "jupiter_tisserand_invariant": "4.513",
        "epoch_osculation": "2457038.5",
        "eccentricity": ".3234352043775058",
        "semi_major_axis": "1.47838106601365",
        "inclination": "9.937234730047306",
        "ascending_node_longitude": "122.253738771451",
        "orbital_period": "656.5654336045866",
        "perihelion_distance": "1.00022058377969",
        "perihelion_argument": "246.174257528329",
        "aphelion_distance": "1.956541548247609",
        "perihelion_time": "2456907.404481503641",
        "mean_anomaly": "71.88070562836215",
        "mean_motion": ".5483078785058433",
        "equinox": "J2000",
        "orbit_class": {
            "orbit_class_type": "APO",
            "orbit_class_description": "Near-Earth asteroid orbits which cross the Earth’s orbit similar to that of 1862 Apollo",
            "orbit_class_range": "a (semi-major axis) > 1.0 AU; q (perihelion) < 1.017 AU"
        }
    },
    "is_sentry_object": false
}